{
  "type": "FeatureCollection",
  "features": [
    {
      "type": "Feature",
      "properties": {
        "norad_id": 37292,
        "name": "COSMOS 2251 DEB",
        "group": "cosmos-2251-debris",
        "lat": 29.515090735328254,
        "lon": 42.17983022210211,
        "alt_km": 727.9199768878716,
        "timestamp": "2025-12-22T11:33:20.837598+00:00",
        "meta_object_name": "COSMOS 2251 DEB",
        "meta_object_id": "1993-036BJG",
        "meta_epoch": "2025-12-02T14:04:30.366912",
        "meta_mean_motion": 14.03226454,
        "meta_eccentricity": 0.02102512,
        "meta_inclination": 74.129,
        "meta_ra_of_asc_node": 67.3453,
        "meta_arg_of_pericenter": 73.1105,
        "meta_mean_anomaly": 289.2966,
        "meta_ephemeris_type": 0,
        "meta_classification_type": "U",
        "meta_norad_cat_id": 37292,
        "meta_element_set_no": 999,
        "meta_rev_at_epoch": 59706,
        "meta_bstar": 0.0022453288,
        "meta_mean_motion_dot": 4.236e-05,
        "meta_mean_motion_ddot": 0,
        "tle_line1": "1 37292U 93036BJG 25336.58646258  .00004236  00000+0  22453-2 0  9999",
        "tle_line2": "2 37292  74.1290  67.3453 0210251  73.1105 289.2966 14.03226454597064"
      },
      "geometry": {
        "type": "Point",
        "coordinates": [
          42.17983022210211,
          29.515090735328254
        ]
      }
    },
    {
      "type": "Feature",
      "properties": {
        "norad_id": 37295,
        "name": "COSMOS 2251 DEB",
        "group": "cosmos-2251-debris",
        "lat": -43.19134807475488,
        "lon": -112.77621564520027,
        "alt_km": 699.8640622190096,
        "timestamp": "2025-12-22T11:33:20.837608+00:00",
        "meta_object_name": "COSMOS 2251 DEB",
        "meta_object_id": "1993-036BJK",
        "meta_epoch": "2025-12-22T00:17:34.421280",
        "meta_mean_motion": 14.65289136,
        "meta_eccentricity": 0.0043932,
        "meta_inclination": 74.0064,
        "meta_ra_of_asc_node": 263.7481,
        "meta_arg_of_pericenter": 80.1076,
        "meta_mean_anomaly": 280.5048,
        "meta_ephemeris_type": 0,
        "meta_classification_type": "U",
        "meta_norad_cat_id": 37295,
        "meta_element_set_no": 999,
        "meta_rev_at_epoch": 82440,
        "meta_bstar": 0.00052217,
        "meta_mean_motion_dot": 2.826e-05,
        "meta_mean_motion_ddot": 0,
        "tle_line1": "1 37295U 93036BJK 25356.01220395  .00002826  00000+0  52217-3 0  9997",
        "tle_line2": "2 37295  74.0064 263.7481 0043932  80.1076 280.5048 14.65289136824403"
      },
      "geometry": {
        "type": "Point",
        "coordinates": [
          -112.77621564520027,
          -43.19134807475488
        ]
      }
    },
    {
      "type": "Feature",
      "properties": {
        "norad_id": 37305,
        "name": "COSMOS 2251 DEB",
        "group": "cosmos-2251-debris",
        "lat": 22.359772772946613,
        "lon": 85.60964015568297,
        "alt_km": 760.9495479154166,
        "timestamp": "2025-12-22T11:33:20.837618+00:00",
        "meta_object_name": "COSMOS 2251 DEB",
        "meta_object_id": "1993-036BJV",
        "meta_epoch": "2025-12-21T01:23:20.082048",
        "meta_mean_motion": 14.36162637,
        "meta_eccentricity": 0.00496491,
        "meta_inclination": 73.8709,
        "meta_ra_of_asc_node": 275.0855,
        "meta_arg_of_pericenter": 234.1491,
        "meta_mean_anomaly": 125.5045,
        "meta_ephemeris_type": 0,
        "meta_classification_type": "U",
        "meta_norad_cat_id": 37305,
        "meta_element_set_no": 999,
        "meta_rev_at_epoch": 66986,
        "meta_bstar": 0.00038407162,
        "meta_mean_motion_dot": 1.108e-05,
        "meta_mean_motion_ddot": 0,
        "tle_line1": "1 37305U 93036BJV 25355.05787132  .00001108  00000+0  38407-3 0  9996",
        "tle_line2": "2 37305  73.8709 275.0855 0049649 234.1491 125.5045 14.36162637669868"
      },
      "geometry": {
        "type": "Point",
        "coordinates": [
          85.60964015568297,
          22.359772772946613
        ]
      }
    },
    {
      "type": "Feature",
      "properties": {
        "norad_id": 37312,
        "name": "COSMOS 2251 DEB",
        "group": "cosmos-2251-debris",
        "lat": -8.87853342133494,
        "lon": 8.56126064650498,
        "alt_km": 743.942400588372,
        "timestamp": "2025-12-22T11:33:20.837628+00:00",
        "meta_object_name": "COSMOS 2251 DEB",
        "meta_object_id": "1993-036BKC",
        "meta_epoch": "2025-12-20T18:50:10.277088",
        "meta_mean_motion": 14.46148275,
        "meta_eccentricity": 0.00184835,
        "meta_inclination": 74.0302,
        "meta_ra_of_asc_node": 189.1635,
        "meta_arg_of_pericenter": 291.522,
        "meta_mean_anomaly": 68.3967,
        "meta_ephemeris_type": 0,
        "meta_classification_type": "U",
        "meta_norad_cat_id": 37312,
        "meta_element_set_no": 999,
        "meta_rev_at_epoch": 86280,
        "meta_bstar": 0.00027670077,
        "meta_mean_motion_dot": 9.64e-06,
        "meta_mean_motion_ddot": 0,
        "tle_line1": "1 37312U 93036BKC 25354.78484117  .00000964  00000+0  27670-3 0  9999",
        "tle_line2": "2 37312  74.0302 189.1635 0018483 291.5220  68.3967 14.46148275862807"
      },
      "geometry": {
        "type": "Point",
        "coordinates": [
          8.56126064650498,
          -8.87853342133494
        ]
      }
    },
    {
      "type": "Feature",
      "properties": {
        "norad_id": 37316,
        "name": "COSMOS 2251 DEB",
        "group": "cosmos-2251-debris",
        "lat": -65.66415553703936,
        "lon": -37.906250461923214,
        "alt_km": 604.7272654600174,
        "timestamp": "2025-12-22T11:33:20.837638+00:00",
        "meta_object_name": "COSMOS 2251 DEB",
        "meta_object_id": "1993-036BKG",
        "meta_epoch": "2025-12-21T18:12:24.799968",
        "meta_mean_motion": 14.94828581,
        "meta_eccentricity": 0.0029483,
        "meta_inclination": 74.0191,
        "meta_ra_of_asc_node": 2.8717,
        "meta_arg_of_pericenter": 67.4813,
        "meta_mean_anomaly": 292.9487,
        "meta_ephemeris_type": 0,
        "meta_classification_type": "U",
        "meta_norad_cat_id": 37316,
        "meta_element_set_no": 999,
        "meta_rev_at_epoch": 86278,
        "meta_bstar": 0.0017094,
        "meta_mean_motion_dot": 0.00018787,
        "meta_mean_motion_ddot": 0,
        "tle_line1": "1 37316U 93036BKG 25355.75862037  .00018787  00000+0  17094-2 0  9992",
        "tle_line2": "2 37316  74.0191   2.8717 0029483  67.4813 292.9487 14.94828581862786"
      },
      "geometry": {
        "type": "Point",
        "coordinates": [
          -37.906250461923214,
          -65.66415553703936
        ]
      }
    },
    {
      "type": "Feature",
      "properties": {
        "norad_id": 37320,
        "name": "COSMOS 2251 DEB",
        "group": "cosmos-2251-debris",
        "lat": -45.27352573138791,
        "lon": 35.8108094903537,
        "alt_km": 620.9567843785562,
        "timestamp": "2025-12-22T11:33:20.837648+00:00",
        "meta_object_name": "COSMOS 2251 DEB",
        "meta_object_id": "1993-036BKL",
        "meta_epoch": "2025-12-19T20:49:51.953088",
        "meta_mean_motion": 14.78856543,
        "meta_eccentricity": 0.00469093,
        "meta_inclination": 74.0446,
        "meta_ra_of_asc_node": 204.1562,
        "meta_arg_of_pericenter": 289.7671,
        "meta_mean_anomaly": 69.8449,
        "meta_ephemeris_type": 0,
        "meta_classification_type": "U",
        "meta_norad_cat_id": 37320,
        "meta_element_set_no": 999,
        "meta_rev_at_epoch": 66252,
        "meta_bstar": 0.00051289365,
        "meta_mean_motion_dot": 3.813e-05,
        "meta_mean_motion_ddot": 0,
        "tle_line1": "1 37320U 93036BKL 25353.86796242  .00003813  00000+0  51289-3 0  9990",
        "tle_line2": "2 37320  74.0446 204.1562 0046909 289.7671  69.8449 14.78856543662522"
      },
      "geometry": {
        "type": "Point",
        "coordinates": [
          35.8108094903537,
          -45.27352573138791
        ]
      }
    },
    {
      "type": "Feature",
      "properties": {
        "norad_id": 37326,
        "name": "COSMOS 2251 DEB",
        "group": "cosmos-2251-debris",
        "lat": -10.517522235879078,
        "lon": 139.0939727530335,
        "alt_km": 703.9249755989213,
        "timestamp": "2025-12-22T11:33:20.837658+00:00",
        "meta_object_name": "COSMOS 2251 DEB",
        "meta_object_id": "1993-036BKS",
        "meta_epoch": "2025-12-18T14:41:59.918784",
        "meta_mean_motion": 14.6160351,
        "meta_eccentricity": 0.00547059,
        "meta_inclination": 74.0257,
        "meta_ra_of_asc_node": 323.4491,
        "meta_arg_of_pericenter": 90.7075,
        "meta_mean_anomaly": 270.0361,
        "meta_ephemeris_type": 0,
        "meta_classification_type": "U",
        "meta_norad_cat_id": 37326,
        "meta_element_set_no": 999,
        "meta_rev_at_epoch": 85569,
        "meta_bstar": 0.00040097011,
        "meta_mean_motion_dot": 2.005e-05,
        "meta_mean_motion_ddot": 0,
        "tle_line1": "1 37326U 93036BKS 25352.61249906  .00002005  00000+0  40097-3 0  9995",
        "tle_line2": "2 37326  74.0257 323.4491 0054705  90.7075 270.0361 14.61603510855692"
      },
      "geometry": {
        "type": "Point",
        "coordinates": [
          139.0939727530335,
          -10.517522235879078
        ]
      }
    }
  ]
}